NORAD_CAT_ID,OBJECT_NAME,OBJECT_TYPE,EPOCH,MEAN_MOTION,ECCENTRICITY,INCLINATION,RA_OF_ASC_NODE,ARG_OF_PERICENTER,MEAN_ANOMALY,BSTAR,MEAN_MOTION_DOT,MEAN_MOTION_DDOT,TLE_LINE0,TLE_LINE1,TLE_LINE2,SEMIMAJOR_AXIS,PERIOD,APOGEE,PERIGEE,DECAYED
56493.0,STARLINK-5841,PAYLOAD,2023-12-26 22:07:49,15.68521426,0.0003805,69.9997,318.0748,260.4709,99.6056,-0.0022529,-0.00248504,0.0,0 STARLINK-5841,1 56493U 23064AX  23360.92209535 -.00248504  00000-0 -22529-2 0  9998,2 56493  69.9997 318.0748 0003805 260.4709  99.6056 15.68521426 36153,6741.267,91.806,365.697,360.567,0.0
56493.0,STARLINK-5841,PAYLOAD,2023-12-27 06:00:00,15.66955609,0.0003559,70.001,317.1575,269.1568,141.5146,-0.0090944,-0.00872892,0.0,0 STARLINK-5841,1 56493U 23064AX  23361.25001157 -.00872892  00000-0 -90944-2 0  9994,2 56493  70.0010 317.1575 0003559 269.1568 141.5146 15.66955609 36558,6745.757,91.898,370.023,365.221,0.0
56493.0,STARLINK-5841,PAYLOAD,2023-12-27 14:00:01,15.66321763,0.0003483,70.0008,316.2247,266.8499,223.218,-0.0098715,-0.00932548,0.0,0 STARLINK-5841,1 56493U 23064AX  23361.58334491 -.00932548  00000-0 -98715-2 0  9999,2 56493  70.0008 316.2247 0003483 266.8499 223.2180 15.66321763  5925,6747.577,91.935,371.792,367.092,0.0
56493.0,STARLINK-5841,PAYLOAD,2023-12-27 22:00:00,15.65683556,0.0003472,70.0013,315.2931,261.648,307.0209,-0.0099851,-0.00920471,0.0,0 STARLINK-5841,1 56493U 23064AX  23361.91667824 -.00920471  00000-0 -99851-2 0  9999,2 56493  70.0013 315.2931 0003472 261.6480 307.0209 15.65683556 36669,6749.411,91.973,373.619,368.932,0.0
56493.0,STARLINK-5841,PAYLOAD,2023-12-28 14:00:01,15.6436467,0.0003521,70.0012,313.4323,265.2473,98.3257,-0.010662,-0.00931353,0.0,0 STARLINK-5841,1 56493U 23064AX  23362.58334491 -.00931353  00000-0 -10662-1 0  9997,2 56493  70.0012 313.4323 0003521 265.2473  98.3257 15.64364670  5863,6753.204,92.05,377.446,372.691,0.0
56493.0,STARLINK-5841,PAYLOAD,2023-12-28 22:00:00,15.63727423,0.0003511,70.0014,312.5036,263.567,176.2615,-0.010884,-0.00927402,0.0,0 STARLINK-5841,1 56493U 23064AX  23362.91667824 -.00927402  00000-0 -10884-1 0  9999,2 56493  70.0014 312.5036 0003511 263.5670 176.2615 15.63727423 36816,6755.038,92.088,379.275,374.531,0.0
56493.0,STARLINK-5841,PAYLOAD,2023-12-29 14:00:01,15.62405474,0.0003387,70.001,310.6483,263.2396,326.7971,-0.011427,-0.00924567,0.0,0 STARLINK-5841,1 56493U 23064AX  23363.58334491 -.00924567  00000-0 -11427-1 0  9997,2 56493  70.0010 310.6483 0003387 263.2396 326.7971 15.62405474  6025,6758.848,92.166,383.002,378.424,0.0
56493.0,STARLINK-5841,PAYLOAD,2023-12-29 22:00:00,15.61771539,0.0003567,70.0014,309.7221,259.483,44.4629,-0.01175,-0.00927282,0.0,0 STARLINK-5841,1 56493U 23064AX  23363.91667824 -.00927282  00000-0 -11750-1 0  9999,2 56493  70.0014 309.7221 0003567 259.4830  44.4629 15.61771539 36976,6760.677,92.203,384.953,380.13,0.0
56493.0,STARLINK-5841,PAYLOAD,2023-12-30 14:00:01,15.60437752,0.0003385,70.001,307.8722,265.5407,183.9221,-0.012025,-0.00903446,0.0,0 STARLINK-5841,1 56493U 23064AX  23364.58334491 -.00903446  00000-0 -12025-1 0  9996,2 56493  70.0010 307.8722 0003385 265.5407 183.9221 15.60437752  5702,6764.529,92.282,388.683,384.104,0.0
56493.0,STARLINK-5841,PAYLOAD,2023-12-30 22:00:00,15.59814862,0.0003365,70.0011,306.9488,263.2998,257.7242,-0.012719,-0.00930341,0.0,0 STARLINK-5841,1 56493U 23064AX  23364.91667824 -.00930341  00000-0 -12719-1 0  9996,2 56493  70.0011 306.9488 0003365 263.2998 257.7242 15.59814862 37134,6766.329,92.319,390.471,385.918,0.0
56493.0,STARLINK-5841,PAYLOAD,2023-12-31 00:00:00,15.59652654,0.0003495,70.0009,306.718,262.9511,5.8483,-0.012926,-0.00938833,0.0,0 STARLINK-5841,1 56493U 23064AX  23365.00001157 -.00938833  00000-0 -12926-1 0  9992,2 56493  70.0009 306.7180 0003495 262.9511   5.8483 15.59652654  5761,6766.799,92.328,391.029,386.299,0.0
56493.0,STARLINK-5841,PAYLOAD,2023-12-31 22:00:00,15.57859712,0.000355,70.0011,304.1836,263.0862,107.9729,-0.013718,-0.00931509,0.0,0 STARLINK-5841,1 56493U 23064AX  23365.91667824 -.00931509  00000-0 -13718-1 0  9994,2 56493  70.0011 304.1836 0003550 263.0862 107.9729 15.57859712  5913,6771.99,92.435,396.259,391.45,0.0
56493.0,STARLINK-5841,PAYLOAD,2024-01-01 06:00:00,15.5716841,0.0003455,70.0008,303.2635,269.2483,170.2762,-0.013195,-0.00877973,0.0,0 STARLINK-5841,1 56493U 23064AX  24001.25001157 -.00877973  00000-0 -13195-1 0  9993,2 56493  70.0008 303.2635 0003455 269.2483 170.2762 15.57168410 37347,6773.994,92.476,398.199,393.518,0.0
56493.0,STARLINK-5841,PAYLOAD,2024-01-01 14:00:01,15.56521277,0.000337,70.0004,302.3443,263.0237,244.1668,-0.013909,-0.00901094,0.0,0 STARLINK-5841,1 56493U 23064AX  24001.58334491 -.00901094  00000-0 -13909-1 0  9994,2 56493  70.0004 302.3443 0003370 263.0237 244.1668 15.56521277  6014,6775.871,92.514,400.02,395.453,0.0
56493.0,STARLINK-5841,PAYLOAD,2024-01-01 22:00:00,15.55904249,0.0003385,70.0006,301.4262,258.9705,315.0839,-0.014809,-0.00934282,0.0,0 STARLINK-5841,1 56493U 23064AX  24001.91667824 -.00934282  00000-0 -14809-1 0  9995,2 56493  70.0006 301.4262 0003385 258.9705 315.0839 15.55904249 37446,6777.662,92.551,401.822,397.233,0.0
56493.0,STARLINK-5841,PAYLOAD,2024-01-02 14:00:01,15.54555832,0.0003461,70.0003,299.5924,260.8112,84.6843,-0.014714,-0.00887649,0.0,0 STARLINK-5841,1 56493U 23064AX  24002.58334491 -.00887649  00000-0 -14714-1 0  9999,2 56493  70.0003 299.5924 0003461 260.8112  84.6843 15.54555832  5408,6781.581,92.631,405.793,401.099,0.0
56493.0,STARLINK-5841,PAYLOAD,2024-01-02 22:00:00,15.5395518,0.0003517,70.0004,298.6772,262.2556,147.7528,-0.016206,-0.00949957,0.0,0 STARLINK-5841,1 56493U 23064AX  24002.91667824 -.00949957  00000-0 -16206-1 0  9994,2 56493  70.0004 298.6772 0003517 262.2556 147.7528 15.53955180  5455,6783.328,92.667,407.579,402.808,0.0
56493.0,STARLINK-5841,PAYLOAD,2024-01-03 06:00:00,15.53249937,0.0003371,70.0,297.7623,270.0609,203.7209,-0.015058,-0.00867865,0.0,0 STARLINK-5841,1 56493U 23064AX  24003.25001157 -.00867865  00000-0 -15058-1 0  9994,2 56493  70.0000 297.7623 0003371 270.0609 203.7209 15.53249937 37652,6785.382,92.709,409.534,404.959,0.0
56493.0,STARLINK-5841,PAYLOAD,2024-01-03 14:00:01,15.52593312,0.0003367,69.9999,296.8483,264.4928,272.2648,-0.015566,-0.00875314,0.0,0 STARLINK-5841,1 56493U 23064AX  24003.58334491 -.00875314  00000-0 -15566-1 0  9992,2 56493  69.9999 296.8483 0003367 264.4928 272.2648 15.52593312  5556,6787.295,92.748,411.445,406.874,0.0
56493.0,STARLINK-5841,PAYLOAD,2024-01-03 22:00:00,15.5194447,0.00034,70.0003,295.9356,262.9901,335.9446,-0.015024,-0.00829383,0.0,0 STARLINK-5841,1 56493U 23064AX  24003.91667824 -.00829383  00000-0 -15024-1 0  9992,2 56493  70.0003 295.9356 0003400 262.9901 335.9446 15.51944470 37750,6789.186,92.787,413.36,408.743,0.0
56493.0,STARLINK-5841,PAYLOAD,2024-01-04 06:00:00,15.51221946,0.0003306,70.0002,295.0234,268.621,31.7351,0.00061344,0.00036029,0.0,0 STARLINK-5841,1 56493U 23064AX  24004.25001157  .00036029  00000-0  61344-3 0  9994,2 56493  70.0002 295.0234 0003306 268.6210  31.7351 15.51221946 37804,6791.294,92.83,415.404,410.914,0.0
56493.0,STARLINK-5841,PAYLOAD,2024-01-04 14:00:01,15.51221802,0.0003285,70.0001,294.1116,262.8119,98.4796,0.00045129,0.0002643,0.0,0 STARLINK-5841,1 56493U 23064AX  24004.58334491  .00026430  00000-0  45129-3 0  9998,2 56493  70.0001 294.1116 0003285 262.8119  98.4796 15.51221802  5711,6791.295,92.83,415.391,410.929,0.0
56493.0,STARLINK-5841,PAYLOAD,2024-01-04 22:00:00,15.51268544,0.0003317,70.0003,293.2006,264.3601,157.8471,-0.0008454,-0.00049592,0.0,0 STARLINK-5841,1 56493U 23064AX  24004.91667824 -.00049592  00000-0 -84540-3 0  9990,2 56493  70.0003 293.2006 0003317 264.3601 157.8471 15.51268544 37911,6791.158,92.827,415.276,410.771,0.0
56493.0,STARLINK-5841,PAYLOAD,2024-01-05 14:00:01,15.5120471,0.0003237,70.0004,291.3777,266.5548,277.5443,0.00091756,0.00054063,0.0,0 STARLINK-5841,1 56493U 23064AX  24005.58334491  .00054063  00000-0  91756-3 0  9999,2 56493  70.0004 291.3777 0003237 266.5548 277.5443 15.51204710 38017,6791.345,92.831,415.408,411.011,0.0
56493.0,STARLINK-5841,PAYLOAD,2024-01-05 22:00:00,15.51268467,0.0003278,70.0008,290.4666,266.8366,338.1652,-0.00076726,-0.00045048,0.0,0 STARLINK-5841,1 56493U 23064AX  24005.91667824 -.00045048  00000-0 -76726-3 0  9990,2 56493  70.0008 290.4666 0003278 266.8366 338.1652 15.51268467  5923,6791.158,92.827,415.25,410.797,0.0
56493.0,STARLINK-5841,PAYLOAD,2024-01-06 06:00:00,15.51227573,0.0003308,70.0004,289.555,273.9393,32.0156,0.0004322,0.00025306,0.0,0 STARLINK-5841,1 56493U 23064AX  24006.25001157  .00025306  00000-0  43220-3 0  9995,2 56493  70.0004 289.5550 0003308 273.9393  32.0156 15.51227573 38112,6791.278,92.83,415.389,410.896,0.0
56493.0,STARLINK-5841,PAYLOAD,2024-01-06 14:00:01,15.51213905,0.0003275,70.0005,288.6435,268.0628,98.8293,0.00067836,0.00039867,0.0,0 STARLINK-5841,1 56493U 23064AX  24006.58334491  .00039867  00000-0  67836-3 0  9997,2 56493  70.0005 288.6435 0003275 268.0628  98.8293 15.51213905  6036,6791.318,92.831,415.407,410.959,0.0
56493.0,STARLINK-5841,PAYLOAD,2024-01-06 22:00:00,15.51277075,0.0003323,70.0009,287.7321,268.1129,159.6907,-0.0010868,-0.00063612,0.0,0 STARLINK-5841,1 56493U 23064AX  24006.91667824 -.00063612  00000-0 -10868-2 0  9992,2 56493  70.0009 287.7321 0003323 268.1129 159.6907 15.51277075 38227,6791.133,92.827,415.255,410.742,0.0
56493.0,STARLINK-5841,PAYLOAD,2024-01-07 03:53:58,15.51242781,0.000315,69.9982,287.0604,267.2216,92.861,6.9129e-06,2.42e-06,0.0,0 STARLINK-5841,1 56493U 23064AX  24007.16248059  .00000242  00000-0  69129-5 0  9990,2 56493  69.9982 287.0604 0003150 267.2216  92.8610 15.51242781 38254,6791.233,92.829,415.238,410.959,0.0
56493.0,STARLINK-5841,PAYLOAD,2024-01-07 22:28:15,15.51239922,0.0003082,69.9981,284.9447,265.3965,94.6869,1.054e-05,4.55e-06,0.0,0 STARLINK-5841,1 56493U 23064AX  24007.93628803  .00000455  00000-0  10540-4 0  9992,2 56493  69.9981 284.9447 0003082 265.3965  94.6869 15.51239922 38022,6791.242,92.829,415.2,411.014,0.0
